$$SOE
2459580.500000000, A.D. 2022-Jan-01 00:00:00.0000, 3.198068461719339E+08, -1.302324007608899E+08, 2.102605482295353E+07,
2459587.500000000, A.D. 2022-Jan-08 00:00:00.0000, 3.257428356839374E+08, -1.198125549321143E+08, 2.033388530728722E+07,
2459594.500000000, A.D. 2022-Jan-15 00:00:00.0000, 3.313027968813410E+08, -1.092543860388713E+08, 1.961820381521861E+07,
2459601.500000000, A.D. 2022-Jan-22 00:00:00.0000, 3.364859672063776E+08, -9.857195904824711E+07, 1.888017157753657E+07,
2459608.500000000, A.D. 2022-Jan-29 00:00:00.0000, 3.412920872210519E+08, -8.777908323206757E+07, 1.812094451882663E+07,
2459615.500000000, A.D. 2022-Feb-05 00:00:00.0000, 3.457213710473674E+08, -7.688930075656562E+07, 1.734167152688187E+07,
2459622.500000000, A.D. 2022-Feb-12 00:00:00.0000, 3.497744795907963E+08, -6.591587836648618E+07, 1.654349262495947E+07,
2459629.500000000, A.D. 2022-Feb-19 00:00:00.0000, 3.534524953185319E+08, -5.487179964356638E+07, 1.572753735238594E+07,
2459636.500000000, A.D. 2022-Feb-26 00:00:00.0000, 3.567568973622270E+08, -4.376975841579182E+07, 1.489492340510704E+07,
2459643.500000000, A.D. 2022-Mar-05 00:00:00.0000, 3.596895371690450E+08, -3.262215379190442E+07, 1.404675546116859E+07,
2459650.500000000, A.D. 2022-Mar-12 00:00:00.0000, 3.622526149725603E+08, -2.144108674881596E+07, 1.318412415524906E+07,
2459657.500000000, A.D. 2022-Mar-19 00:00:00.0000, 3.644486571914340E+08, -1.023835811094593E+07, 1.230810518790985E+07,
2459664.500000000, A.D. 2022-Mar-26 00:00:00.0000, 3.662804948040437E+08, 9.745321996325483E+05, 1.141975855712740E+07,
2459671.500000000, A.D. 2022-Apr-02 00:00:00.0000, 3.677512427829646E+08, 1.218638470662733E+07, 1.052012789166496E+07,
2459678.500000000, A.D. 2022-Apr-09 00:00:00.0000, 3.688642808675589E+08, 2.338629883381281E+07, 9.610239852096124E+06,
2459685.500000000, A.D. 2022-Apr-16 00:00:00.0000, 3.696232360268351E+08, 3.456367103068238E+07, 8.691103610578548E+06,
2459692.500000000, A.D. 2022-Apr-23 00:00:00.0000, 3.700319653339459E+08, 4.570819375755372E+07, 7.763710606003156E+06,
2459699.500000000, A.D. 2022-Apr-30 00:00:00.0000, 3.700945373750473E+08, 5.680985317999338E+07, 6.829034555342000E+06,
2459706.500000000, A.D. 2022-May-07 00:00:00.0000, 3.698152152397991E+08, 6.785892368197225E+07, 5.888031270963024E+06,
2459713.500000000, A.D. 2022-May-14 00:00:00.0000, 3.691984424571055E+08, 7.884596231500268E+07, 4.941638396825887E+06,
2459720.500000000, A.D. 2022-May-21 00:00:00.0000, 3.682488298188692E+08, 8.976180401727250E+07, 3.990775305047486E+06,
2459727.500000000, A.D. 2022-May-28 00:00:00.0000, 3.669711425868621E+08, 1.005975567125946E+08, 3.036343112155557E+06,
2459734.500000000, A.D. 2022-Jun-04 00:00:00.0000, 3.653702883320928E+08, 1.113445960385203E+08, 2.079224758113235E+06,
2459741.500000000, A.D. 2022-Jun-11 00:00:00.0000, 3.634513055222322E+08, 1.219945597620420E+08, 1.120285129415594E+06,
2459748.500000000, A.D. 2022-Jun-18 00:00:00.0000, 3.612193528655592E+08, 1.325393419464186E+08, 1.603712184859589E+05,
2459755.500000000, A.D. 2022-Jun-25 00:00:00.0000, 3.586796994091295E+08, 1.429710868802291E+08, -7.996876910936087E+05,
2459762.500000000, A.D. 2022-Jul-02 00:00:00.0000, 3.558377154915119E+08, 1.532821827418997E+08, -1.759079835983142E+06,
2459769.500000000, A.D. 2022-Jul-09 00:00:00.0000, 3.526988649044672E+08, 1.634652552113402E+08, -2.717010806952208E+06,
2459776.500000000, A.D. 2022-Jul-16 00:00:00.0000, 3.492686981693555E+08, 1.735131621437126E+08, -3.672703315569945E+06,
2459783.500000000, A.D. 2022-Jul-23 00:00:00.0000, 3.455528446926611E+08, 1.834189894183644E+08, -4.625396688245714E+06,
2459790.500000000, A.D. 2022-Jul-30 00:00:00.0000, 3.415570038604497E+08, 1.931760446438861E+08, -5.574346371418163E+06,
2459797.500000000, A.D. 2022-Aug-06 00:00:00.0000, 3.372869386490201E+08, 2.027778493909411E+08, -6.518823727916896E+06,
2459804.500000000, A.D. 2022-Aug-13 00:00:00.0000, 3.327484709005445E+08, 2.122181327249812E+08, -7.458115826676056E+06,
2459811.500000000, A.D. 2022-Aug-20 00:00:00.0000, 3.279474766659357E+08, 2.214908255521860E+08, -8.391525125310466E+06,
2459818.500000000, A.D. 2022-Aug-27 00:00:00.0000, 3.228898816556718E+08, 2.305900550669195E+08, -9.318369113324046E+06,
2459825.500000000, A.D. 2022-Sep-03 00:00:00.0000, 3.175816570195698E+08, 2.395101392032374E+08, -1.023797994969226E+07,
2459832.500000000, A.D. 2022-Sep-10 00:00:00.0000, 3.120288155195475E+08, 2.482455811260364E+08, -1.114970410289486E+07,
2459839.500000000, A.D. 2022-Sep-17 00:00:00.0000, 3.062374080999957E+08, 2.567910637705108E+08, -1.205290199785700E+07,
2459846.500000000, A.D. 2022-Sep-24 00:00:00.0000, 3.002135208928525E+08, 2.651414443883618E+08, -1.294694768100838E+07,
2459853.500000000, A.D. 2022-Oct-01 00:00:00.0000, 2.939632728759116E+08, 2.732917490869277E+08, -1.383122852879496E+07,
2459860.500000000, A.D. 2022-Oct-08 00:00:00.0000, 2.874928145724256E+08, 2.812371678899114E+08, -1.470514499597763E+07,
2459867.500000000, A.D. 2022-Oct-15 00:00:00.0000, 2.808083268400915E+08, 2.889730515214118E+08, -1.556811022175631E+07,
2459874.500000000, A.D. 2022-Oct-22 00:00:00.0000, 2.739160175452422E+08, 2.964949082330617E+08, -1.641954943193617E+07,
2459881.500000000, A.D. 2022-Oct-29 00:00:00.0000, 2.668221186044336E+08, 3.037983980888560E+08, -1.725889957925466E+07,
2459888.500000000, A.D. 2022-Nov-05 00:00:00.0000, 2.595328854800003E+08, 3.108793274507470E+08, -1.808560919200779E+07,
2459895.500000000, A.D. 2022-Nov-12 00:00:00.0000, 2.520545971474510E+08, 3.177336449308141E+08, -1.889913814801624E+07,
2459902.500000000, A.D. 2022-Nov-19 00:00:00.0000, 2.443935557980822E+08, 3.243574378562853E+08, -1.969895738635227E+07,
2459909.500000000, A.D. 2022-Nov-26 00:00:00.0000, 2.365560865232624E+08, 3.307469288512874E+08, -2.048454861377160E+07,
2459916.500000000, A.D. 2022-Dec-03 00:00:00.0000, 2.285485371316445E+08, 3.368984725255308E+08, -2.125540402246040E+07,
2459923.500000000, A.D. 2022-Dec-10 00:00:00.0000, 2.203772781313678E+08, 3.428085522909697E+08, -2.201102602223702E+07,
2459930.500000000, A.D. 2022-Dec-17 00:00:00.0000, 2.120487028900872E+08, 3.484737772841215E+08, -2.275092699208091E+07,
2459937.500000000, A.D. 2022-Dec-24 00:00:00.0000, 2.035692280717964E+08, 3.538908793307861E+08, -2.347462906699285E+07,
2459944.500000000, A.D. 2022-Dec-31 00:00:00.0000, 1.949452946989641E+08, 3.590567100631840E+08, -2.418166398483869E+07,
2459951.500000000, A.D. 2023-Jan-07 00:00:00.0000, 1.861833699552719E+08, 3.639682391535757E+08, -2.487157292657584E+07,
2459958.500000000, A.D. 2023-Jan-14 00:00:00.0000, 1.772899477538093E+08, 3.686225541586611E+08, -2.554390612921444E+07,
2459965.500000000, A.D. 2023-Jan-21 00:00:00.0000, 1.682715474134274E+08, 3.730168588001562E+08, -2.619822247111212E+07,
2459972.500000000, A.D. 2023-Jan-28 00:00:00.0000, 1.591347141023435E+08, 3.771484694912990E+08, -2.683408938244255E+07,
2459979.500000000, A.D. 2023-Feb-04 00:00:00.0000, 1.498860208351609E+08, 3.810148131389553E+08, -2.745108281517534E+07,
2459986.500000000, A.D. 2023-Feb-11 00:00:00.0000, 1.405320702198096E+08, 3.846134260269084E+08, -2.804878712385575E+07,
2459993.500000000, A.D. 2023-Feb-18 00:00:00.0000, 1.310794958826746E+08, 3.879419529585584E+08, -2.862679491878867E+07,
2460000.500000000, A.D. 2023-Feb-25 00:00:00.0000, 1.215349638276677E+08, 3.909981464997666E+08, -2.918470692932054E+07,
2460007.500000000, A.D. 2023-Mar-04 00:00:00.0000, 1.119051738255037E+08, 3.937798663428974E+08, -2.972213188549252E+07,
2460014.500000000, A.D. 2023-Mar-11 00:00:00.0000, 1.021968608563809E+08, 3.962850787936200E+08, -3.023868642093609E+07,
2460021.500000000, A.D. 2023-Mar-18 00:00:00.0000, 9.241679664713563E+07, 3.985118563305033E+08, -3.073399500529625E+07,
2460028.500000000, A.D. 2023-Mar-25 00:00:00.0000, 8.257179149831814E+07, 4.004583771892622E+08, -3.120768992819780E+07,
2460035.500000000, A.D. 2023-Apr-01 00:00:00.0000, 7.266869681596749E+07, 4.021229253666500E+08, -3.165941134110846E+07,
2460042.500000000, A.D. 2023-Apr-08 00:00:00.0000, 6.271440772399240E+07, 4.035038922746395E+08, -3.208880720087799E+07,
2460049.500000000, A.D. 2023-Apr-15 00:00:00.0000, 5.271586341375249E+07, 4.045997789431615E+08, -3.249553299146947E+07,
2460056.500000000, A.D. 2023-Apr-22 00:00:00.0000, 4.268004703112058E+07, 4.054091957234668E+08, -3.287925163926266E+07,
2460063.500000000, A.D. 2023-Apr-29 00:00:00.0000, 3.261398782927709E+07, 4.059308617553250E+08, -3.323963369021319E+07,
2460070.500000000, A.D. 2023-May-06 00:00:00.0000, 2.252476382390503E+07, 4.061636059857336E+08, -3.357635744346993E+07,
2460077.500000000, A.D. 2023-May-13 00:00:00.0000, 1.241950396791967E+07, 4.061063688477126E+08, -3.388910902543032E+07,
2460084.500000000, A.D. 2023-May-20 00:00:00.0000, 2.305390071551512E+06, 4.057582041112887E+08, -3.417758246636203E+07,
2460091.500000000, A.D. 2023-May-27 00:00:00.0000, -7.810341347606986E+06, 4.051182808817571E+08, -3.444147980050154E+07,
2460098.500000000, A.D. 2023-Jun-03 00:00:00.0000, -1.792039723623903E+07, 4.041858857764043E+08, -3.468051119369616E+07,
2460105.500000000, A.D. 2023-Jun-10 00:00:00.0000, -2.801742618451652E+07, 4.029604252715530E+08, -3.489439510287946E+07,
2460112.500000000, A.D. 2023-Jun-17 00:00:00.0000, -3.809401653409431E+07, 4.014414281657583E+08, -3.508285848147930E+07,
2460119.500000000, A.D. 2023-Jun-24 00:00:00.0000, -4.814269410600275E+07, 3.996285482210799E+08, -3.524563705660477E+07,
2460126.500000000, A.D. 2023-Jul-01 00:00:00.0000, -5.815591930750964E+07, 3.975215678181034E+08, -3.538247563482034E+07,
2460133.500000000, A.D. 2023-Jul-08 00:00:00.0000, -6.812608530366471E+07, 3.951204034560168E+08, -3.549312821751459E+07,
2460140.500000000, A.D. 2023-Jul-15 00:00:00.0000, -7.804551854052389E+07, 3.924251102732188E+08, -3.557735804089807E+07,
2460147.500000000, A.D. 2023-Jul-22 00:00:00.0000, -8.790647811435592E+07, 3.894358845567699E+08, -3.563493794806248E+07,
$$EOE